0 COSMOS 1818 COOLANT
1 36943U 87011X   13284.33452758  .00000281  00000-0  14248-3 0  2049
2 36943 065.0073 260.7158 0024660 262.9394 096.8960 14.31666150185375
0 COSMOS 1818 COOLANT
1 36943U 87011X   13286.36027681  .00000291  00000-0  14590-3 0  2059
2 36943 065.0076 255.0437 0024606 262.3507 097.4766 14.31668102185667
0 COSMOS 1818 COOLANT
1 36943U 87011X   13290.48162171  .00000596  00000-0  22203-3 0  2071
2 36943 065.0115 243.4960 0024013 263.7240 096.1579 14.31676603186253
0 COSMOS 1818 COOLANT
1 36943U 87011X   13290.48162639  .00000320  00000-0  15699-3 0  2065
2 36943 065.0060 243.5014 0022502 252.6898 107.2200 14.31672619186258
0 COSMOS 1818 COOLANT
1 36943U 87011X   13293.20589280  .00000341  00000-0  16482-3 0  2078
2 36943 065.0057 235.8703 0022850 256.9259 102.9568 14.31675976186648
0 COSMOS 1818 COOLANT
1 36943U 87011X   13295.44118510  .00000358  00000-0  17117-3 0  2085
2 36943 065.0045 229.6037 0022604 253.1287 106.7704 14.31678688186965
